CCSDS_OMM_VERS = 2.0
CREATION_DATE  = 
ORIGINATOR     = 

OBJECT_NAME    = SL-16 R/B
OBJECT_ID      = 1998-043G
CENTER_NAME    = EARTH
REF_FRAME      = TEME
TIME_SYSTEM    = UTC
MEAN_ELEMENT_THEORY = SGP/SGP4

EPOCH          = 2026-02-26T13:48:53.271648
MEAN_MOTION    = 14.26046841
ECCENTRICITY   = .00107103
INCLINATION    = 98.8234
RA_OF_ASC_NODE = 10.8617
ARG_OF_PERICENTER = 50.6933
MEAN_ANOMALY   = 309.5194

EPHEMERIS_TYPE = 0
CLASSIFICATION_TYPE = U
NORAD_CAT_ID   = 25400
ELEMENT_SET_NO = 999
REV_AT_EPOCH   = 43740
BSTAR          = .4826119E-4
MEAN_MOTION_DOT = .7E-6
MEAN_MOTION_DDOT = 0

CCSDS_OMM_VERS = 2.0
CREATION_DATE  = 
ORIGINATOR     = 

OBJECT_NAME    = SL-16 R/B
OBJECT_ID      = 1998-045B
CENTER_NAME    = EARTH
REF_FRAME      = TEME
TIME_SYSTEM    = UTC
MEAN_ELEMENT_THEORY = SGP/SGP4

EPOCH          = 2026-02-26T11:36:38.685312
MEAN_MOTION    = 14.16190937
ECCENTRICITY   = .00061421
INCLINATION    = 71.0109
RA_OF_ASC_NODE = 205.1379
ARG_OF_PERICENTER = 26.0293
MEAN_ANOMALY   = 334.1139

EPHEMERIS_TYPE = 0
CLASSIFICATION_TYPE = U
NORAD_CAT_ID   = 25407
ELEMENT_SET_NO = 999
REV_AT_EPOCH   = 42551
BSTAR          = -.69680813E-4
MEAN_MOTION_DOT = -.186E-5
MEAN_MOTION_DDOT = 0

CCSDS_OMM_VERS = 2.0
CREATION_DATE  = 
ORIGINATOR     = 

OBJECT_NAME    = ISS (ZARYA)
OBJECT_ID      = 1998-067A
CENTER_NAME    = EARTH
REF_FRAME      = TEME
TIME_SYSTEM    = UTC
MEAN_ELEMENT_THEORY = SGP/SGP4

EPOCH          = 2026-02-26T13:00:04.689216
MEAN_MOTION    = 15.48311551
ECCENTRICITY   = .00083443
INCLINATION    = 51.6322
RA_OF_ASC_NODE = 127.4658
ARG_OF_PERICENTER = 135.8715
MEAN_ANOMALY   = 224.2940

EPHEMERIS_TYPE = 0
CLASSIFICATION_TYPE = U
NORAD_CAT_ID   = 25544
ELEMENT_SET_NO = 999
REV_AT_EPOCH   = 55460
BSTAR          = .23065818E-3
MEAN_MOTION_DOT = .11988E-3
MEAN_MOTION_DDOT = 0

CCSDS_OMM_VERS = 2.0
CREATION_DATE  = 
ORIGINATOR     = 

OBJECT_NAME    = CZ-4B R/B
OBJECT_ID      = 1999-025C
CENTER_NAME    = EARTH
REF_FRAME      = TEME
TIME_SYSTEM    = UTC
MEAN_ELEMENT_THEORY = SGP/SGP4

EPOCH          = 2026-02-26T14:37:21.048096
MEAN_MOTION    = 14.18262842
ECCENTRICITY   = .00373653
INCLINATION    = 98.6651
RA_OF_ASC_NODE = 102.1521
ARG_OF_PERICENTER = 18.5423
MEAN_ANOMALY   = 144.3223

EPHEMERIS_TYPE = 0
CLASSIFICATION_TYPE = U
NORAD_CAT_ID   = 25732
ELEMENT_SET_NO = 999
REV_AT_EPOCH   = 38659
BSTAR          = .47828226E-4
MEAN_MOTION_DOT = .56E-6
MEAN_MOTION_DDOT = 0

CCSDS_OMM_VERS = 2.0
CREATION_DATE  = 
ORIGINATOR     = 

OBJECT_NAME    = OKEAN-O
OBJECT_ID      = 1999-039A
CENTER_NAME    = EARTH
REF_FRAME      = TEME
TIME_SYSTEM    = UTC
MEAN_ELEMENT_THEORY = SGP/SGP4

EPOCH          = 2026-02-26T10:21:12.450240
MEAN_MOTION    = 14.80314560
ECCENTRICITY   = .0001587
INCLINATION    = 97.9469
RA_OF_ASC_NODE = 117.4361
ARG_OF_PERICENTER = 74.4576
MEAN_ANOMALY   = 285.6811

EPHEMERIS_TYPE = 0
CLASSIFICATION_TYPE = U
NORAD_CAT_ID   = 25860
ELEMENT_SET_NO = 999
REV_AT_EPOCH   = 43272
BSTAR          = .93460559E-4
MEAN_MOTION_DOT = .66E-5
MEAN_MOTION_DDOT = 0

CCSDS_OMM_VERS = 2.0
CREATION_DATE  = 
ORIGINATOR     = 

OBJECT_NAME    = SL-16 R/B
OBJECT_ID      = 1999-039B
CENTER_NAME    = EARTH
REF_FRAME      = TEME
TIME_SYSTEM    = UTC
MEAN_ELEMENT_THEORY = SGP/SGP4

EPOCH          = 2026-02-26T10:07:30.200448
MEAN_MOTION    = 14.81713303
ECCENTRICITY   = .00135227
INCLINATION    = 97.9992
RA_OF_ASC_NODE = 116.5340
ARG_OF_PERICENTER = 296.3966
MEAN_ANOMALY   = 63.5858

EPHEMERIS_TYPE = 0
CLASSIFICATION_TYPE = U
NORAD_CAT_ID   = 25861
ELEMENT_SET_NO = 999
REV_AT_EPOCH   = 43519
BSTAR          = .77557698E-4
MEAN_MOTION_DOT = .558E-5
MEAN_MOTION_DDOT = 0

CCSDS_OMM_VERS = 2.0
CREATION_DATE  = 
ORIGINATOR     = 

OBJECT_NAME    = DELTA 2 R/B
OBJECT_ID      = 1999-041E
CENTER_NAME    = EARTH
REF_FRAME      = TEME
TIME_SYSTEM    = UTC
MEAN_ELEMENT_THEORY = SGP/SGP4

EPOCH          = 2026-02-26T12:57:03.486816
MEAN_MOTION    = 14.11793860
ECCENTRICITY   = .05022581
INCLINATION    = 51.7663
RA_OF_ASC_NODE = 345.8113
ARG_OF_PERICENTER = 315.5090
MEAN_ANOMALY   = 40.6520

EPHEMERIS_TYPE = 0
CLASSIFICATION_TYPE = U
NORAD_CAT_ID   = 25876
ELEMENT_SET_NO = 999
REV_AT_EPOCH   = 36145
BSTAR          = .29979473E-3
MEAN_MOTION_DOT = .1629E-4
MEAN_MOTION_DDOT = 0

CCSDS_OMM_VERS = 2.0
CREATION_DATE  = 
ORIGINATOR     = 

OBJECT_NAME    = HELIOS 1B
OBJECT_ID      = 1999-064A
CENTER_NAME    = EARTH
REF_FRAME      = TEME
TIME_SYSTEM    = UTC
MEAN_ELEMENT_THEORY = SGP/SGP4

EPOCH          = 2026-02-26T11:33:14.332896
MEAN_MOTION    = 14.87643725
ECCENTRICITY   = .00024544
INCLINATION    = 98.1707
RA_OF_ASC_NODE = 319.3948
ARG_OF_PERICENTER = 90.2633
MEAN_ANOMALY   = 269.8864

EPHEMERIS_TYPE = 0
CLASSIFICATION_TYPE = U
NORAD_CAT_ID   = 25977
ELEMENT_SET_NO = 999
REV_AT_EPOCH   = 68359
BSTAR          = .18957851E-3
MEAN_MOTION_DOT = .1666E-4
MEAN_MOTION_DDOT = 0

CCSDS_OMM_VERS = 2.0
CREATION_DATE  = 
ORIGINATOR     = 

OBJECT_NAME    = TERRA
OBJECT_ID      = 1999-068A
CENTER_NAME    = EARTH
REF_FRAME      = TEME
TIME_SYSTEM    = UTC
MEAN_ELEMENT_THEORY = SGP/SGP4

EPOCH          = 2026-02-26T15:20:50.005824
MEAN_MOTION    = 14.61001036
ECCENTRICITY   = .00019287
INCLINATION    = 97.9619
RA_OF_ASC_NODE = 111.4951
ARG_OF_PERICENTER = 180.0824
MEAN_ANOMALY   = 341.4086

EPHEMERIS_TYPE = 0
CLASSIFICATION_TYPE = U
NORAD_CAT_ID   = 25994
ELEMENT_SET_NO = 999
REV_AT_EPOCH   = 39346
BSTAR          = .9595383E-4
MEAN_MOTION_DOT = .426E-5
MEAN_MOTION_DDOT = 0

CCSDS_OMM_VERS = 2.0
CREATION_DATE  = 
ORIGINATOR     = 

OBJECT_NAME    = SL-16 R/B
OBJECT_ID      = 2000-006B
CENTER_NAME    = EARTH
REF_FRAME      = TEME
TIME_SYSTEM    = UTC
MEAN_ELEMENT_THEORY = SGP/SGP4

EPOCH          = 2026-02-26T11:54:40.010688
MEAN_MOTION    = 14.15821131
ECCENTRICITY   = .00174882
INCLINATION    = 71.0017
RA_OF_ASC_NODE = 121.3748
ARG_OF_PERICENTER = 205.5115
MEAN_ANOMALY   = 154.5147

EPHEMERIS_TYPE = 0
CLASSIFICATION_TYPE = U
NORAD_CAT_ID   = 26070
ELEMENT_SET_NO = 999
REV_AT_EPOCH   = 34697
BSTAR          = .16757744E-3
MEAN_MOTION_DOT = .282E-5
MEAN_MOTION_DDOT = 0

CCSDS_OMM_VERS = 2.0
CREATION_DATE  = 
ORIGINATOR     = 

OBJECT_NAME    = TITAN 4B R/B
OBJECT_ID      = 2000-047B
CENTER_NAME    = EARTH
REF_FRAME      = TEME
TIME_SYSTEM    = UTC
MEAN_ELEMENT_THEORY = SGP/SGP4

EPOCH          = 2026-02-26T13:33:13.868640
MEAN_MOTION    = 15.09442052
ECCENTRICITY   = .00377904
INCLINATION    = 67.9884
RA_OF_ASC_NODE = 71.7917
ARG_OF_PERICENTER = 48.7599
MEAN_ANOMALY   = 311.6795

EPHEMERIS_TYPE = 0
CLASSIFICATION_TYPE = U
NORAD_CAT_ID   = 26474
ELEMENT_SET_NO = 999
REV_AT_EPOCH   = 39123
BSTAR          = .23581831E-3
MEAN_MOTION_DOT = .371E-4
MEAN_MOTION_DDOT = 0

CCSDS_OMM_VERS = 2.0
CREATION_DATE  = 
ORIGINATOR     = 

OBJECT_NAME    = ENVISAT
OBJECT_ID      = 2002-009A
CENTER_NAME    = EARTH
REF_FRAME      = TEME
TIME_SYSTEM    = UTC
MEAN_ELEMENT_THEORY = SGP/SGP4

EPOCH          = 2026-02-26T11:55:22.247328
MEAN_MOTION    = 14.39032075
ECCENTRICITY   = .00013762
INCLINATION    = 98.3707
RA_OF_ASC_NODE = 11.3619
ARG_OF_PERICENTER = 85.6492
MEAN_ANOMALY   = 26.1049

EPHEMERIS_TYPE = 0
CLASSIFICATION_TYPE = U
NORAD_CAT_ID   = 27386
ELEMENT_SET_NO = 999
REV_AT_EPOCH   = 25756
BSTAR          = .53269701E-4
MEAN_MOTION_DOT = .122E-5
MEAN_MOTION_DDOT = 0

