SL-16 R/B               
1 25400U 98043G   26057.57561657  .00000070  00000+0  48261-4 0  9998
2 25400  98.8234  10.8617 0010710  50.6933 309.5194 14.26046841437400
SL-16 R/B               
1 25407U 98045B   26057.48378108 -.00000186  00000+0 -69681-4 0  9993
2 25407  71.0109 205.1379 0006142  26.0293 334.1139 14.16190937425512
ISS (ZARYA)             
1 25544U 98067A   26057.54172094  .00011988  00000+0  23066-3 0  9998
2 25544  51.6322 127.4658 0008344 135.8715 224.2940 15.48311551554600
CZ-4B R/B               
1 25732U 99025C   26057.60927139  .00000056  00000+0  47828-4 0  9994
2 25732  98.6651 102.1521 0037365  18.5423 144.3223 14.18262842386593
OKEAN-O                 
1 25860U 99039A   26057.43139410  .00000660  00000+0  93461-4 0  9994
2 25860  97.9469 117.4361 0001587  74.4576 285.6811 14.80314560432725
SL-16 R/B               
1 25861U 99039B   26057.42187732  .00000558  00000+0  77558-4 0  9999
2 25861  97.9992 116.5340 0013522 296.3966  63.5858 14.81713303435191
DELTA 2 R/B             
1 25876U 99041E   26057.53962369  .00001629  00000+0  29979-3 0  9990
2 25876  51.7663 345.8113 0502258 315.5090  40.6520 14.11793860361454
HELIOS 1B               
1 25977U 99064A   26057.48141589  .00001666  00000+0  18958-3 0  9990
2 25977  98.1707 319.3948 0002454  90.2633 269.8864 14.87643725683590
TERRA                   
1 25994U 99068A   26057.63946766  .00000426  00000+0  95954-4 0  9995
2 25994  97.9619 111.4951 0001928 180.0824 341.4086 14.61001036393460
SL-16 R/B               
1 26070U 00006B   26057.49629642  .00000282  00000+0  16758-3 0  9994
2 26070  71.0017 121.3748 0017488 205.5115 154.5147 14.15821131346979
TITAN 4B R/B            
1 26474U 00047B   26057.56474385  .00003710  00000+0  23582-3 0  9999
2 26474  67.9884  71.7917 0037790  48.7599 311.6795 15.09442052391239
ENVISAT                 
1 27386U 02009A   26057.49678527  .00000122  00000+0  53270-4 0  9990
2 27386  98.3707  11.3619 0001376  85.6492  26.1049 14.39032075257565
